NORAD_CAT_ID,OBJECT_NAME,OBJECT_TYPE,EPOCH,MEAN_MOTION,ECCENTRICITY,INCLINATION,RA_OF_ASC_NODE,ARG_OF_PERICENTER,MEAN_ANOMALY,BSTAR,MEAN_MOTION_DOT,MEAN_MOTION_DDOT,TLE_LINE0,TLE_LINE1,TLE_LINE2,SEMIMAJOR_AXIS,PERIOD,APOGEE,PERIGEE,DECAYED
52363.0,STARLINK-3830,PAYLOAD,2023-09-07 16:28:18,15.0885464,0.0001579,53.2182,342.2439,107.5482,252.5683,-0.00024733,-4.224e-05,0.0,0 STARLINK-3830,1 52363U 22045AJ  23250.68632935 -.00004224  00000-0 -24733-3 0  9992,2 52363  53.2182 342.2439 0001579 107.5482 252.5683 15.08854640 77802,6917.836,95.437,540.793,538.608,0.0
52363.0,STARLINK-3830,PAYLOAD,2023-09-08 13:08:20,15.08830852,0.0001571,53.2181,338.3792,96.1834,263.9338,0.00011961,1.616e-05,0.0,0 STARLINK-3830,1 52363U 22045AJ  23251.54745960  .00001616  00000-0  11961-3 0  9990,2 52363  53.2181 338.3792 0001571  96.1834 263.9338 15.08830852 77931,6917.908,95.438,540.86,538.687,0.0
52363.0,STARLINK-3830,PAYLOAD,2023-09-09 12:59:07,15.08843527,0.0001399,53.2179,333.9189,89.9819,270.1334,7.4618e-05,9e-06,0.0,0 STARLINK-3830,1 52363U 22045AJ  23252.54105874  .00000900  00000-0  74618-4 0  9999,2 52363  53.2179 333.9189 0001399  89.9819 270.1334 15.08843527 78086,6917.87,95.437,540.702,538.767,0.0
52363.0,STARLINK-3830,PAYLOAD,2023-09-09 14:34:30,15.08845299,0.0001428,53.2182,333.6216,92.6507,267.4649,8.7572e-05,1.106e-05,0.0,0 STARLINK-3830,1 52363U 22045AJ  23252.60729712  .00001106  00000-0  87572-4 0  9991,2 52363  53.2182 333.6216 0001428  92.6507 267.4649 15.08845299 78093,6917.864,95.437,540.717,538.741,0.0
52363.0,STARLINK-3830,PAYLOAD,2023-09-09 22:31:26,15.08838172,0.0001515,53.2184,332.1344,91.6386,268.4779,8.1878e-05,1.015e-05,0.0,0 STARLINK-3830,1 52363U 22045AJ  23252.93850209  .00001015  00000-0  81878-4 0  9995,2 52363  53.2184 332.1344 0001515  91.6386 268.4779 15.08838172 78145,6917.886,95.438,540.799,538.703,0.0
52363.0,STARLINK-3830,PAYLOAD,2023-09-10 12:49:54,15.08844741,0.0001448,53.218,329.459,89.8528,270.263,9.1167e-05,1.163e-05,0.0,0 STARLINK-3830,1 52363U 22045AJ  23253.53465759  .00001163  00000-0  91167-4 0  9990,2 52363  53.2180 329.4590 0001448  89.8528 270.2630 15.08844741 78231,6917.866,95.437,540.733,538.729,0.0
52363.0,STARLINK-3830,PAYLOAD,2023-09-11 11:05:18,15.08839354,0.0001424,53.2179,325.2953,84.4473,275.6681,-1.1096e-05,-4.65e-06,0.0,0 STARLINK-3830,1 52363U 22045AJ  23254.46202515 -.00000465  00000-0 -11096-4 0  9991,2 52363  53.2179 325.2953 0001424  84.4473 275.6681 15.08839354 78374,6917.882,95.438,540.732,538.762,0.0
52363.0,STARLINK-3830,PAYLOAD,2023-09-12 10:56:05,15.08850279,0.0001415,53.2179,320.8352,85.8111,274.3043,7.3252e-05,8.78e-06,0.0,0 STARLINK-3830,1 52363U 22045AJ  23255.45561460  .00000878  00000-0  73252-4 0  9996,2 52363  53.2179 320.8352 0001415  85.8111 274.3043 15.08850279 78526,6917.849,95.437,540.693,538.735,0.0
52363.0,STARLINK-3830,PAYLOAD,2023-09-12 14:06:51,15.08853279,0.0001443,53.2178,320.2396,94.765,265.3507,9.519e-05,1.228e-05,0.0,0 STARLINK-3830,1 52363U 22045AJ  23255.58809105  .00001228  00000-0  95190-4 0  9996,2 52363  53.2178 320.2396 0001443  94.7650 265.3507 15.08853279 78545,6917.84,95.437,540.703,538.707,0.0
52363.0,STARLINK-3830,PAYLOAD,2023-09-13 09:11:29,15.08842347,0.0001464,53.2176,316.672,85.0698,275.0461,0.00013272,1.825e-05,0.0,0 STARLINK-3830,1 52363U 22045AJ  23256.38297590  .00001825  00000-0  13272-3 0  9997,2 52363  53.2176 316.6720 0001464  85.0698 275.0461 15.08842347 78665,6917.873,95.437,540.751,538.725,0.0
52363.0,STARLINK-3830,PAYLOAD,2023-09-13 10:46:51,15.08847615,0.0001664,53.2186,316.3706,106.0337,254.0839,0.00011455,1.536e-05,0.0,0 STARLINK-3830,1 52363U 22045AJ  23256.44921219  .00001536  00000-0  11455-3 0  9996,2 52363  53.2186 316.3706 0001664 106.0337 254.0839 15.08847615 78673,6917.857,95.437,540.873,538.571,0.0
52363.0,STARLINK-3830,PAYLOAD,2023-09-13 15:33:00,15.08852855,0.0001752,53.2182,315.4771,114.5912,245.5263,0.00013653,1.886e-05,0.0,0 STARLINK-3830,1 52363U 22045AJ  23256.64792666  .00001886  00000-0  13653-3 0  9990,2 52363  53.2182 315.4771 0001752 114.5912 245.5263 15.08852855 78704,6917.841,95.437,540.918,538.494,0.0
52363.0,STARLINK-3830,PAYLOAD,2023-09-14 09:02:18,15.08820637,0.0001478,53.2174,312.2111,98.6201,261.4958,-0.00018161,-3.176e-05,0.0,0 STARLINK-3830,1 52363U 22045AJ  23257.37660191 -.00003176  00000-0 -18161-3 0  9993,2 52363  53.2174 312.2111 0001478  98.6201 261.4958 15.08820637 78819,6917.94,95.439,540.827,538.782,0.0
52363.0,STARLINK-3830,PAYLOAD,2023-09-14 20:10:00,15.08824941,0.0001474,53.2173,310.1297,101.94,258.1758,-0.00010071,-1.89e-05,0.0,0 STARLINK-3830,1 52363U 22045AJ  23257.84028088 -.00001890  00000-0 -10071-3 0  9991,2 52363  53.2173 310.1297 0001474 101.9400 258.1758 15.08824941 78885,6917.926,95.439,540.811,538.772,0.0
52363.0,STARLINK-3830,PAYLOAD,2023-09-15 08:53:04,15.0883635,0.0001445,53.217,307.7505,104.5442,255.5711,2.1837e-05,6e-07,0.0,0 STARLINK-3830,1 52363U 22045AJ  23258.37019513  .00000060  00000-0  21837-4 0  9992,2 52363  53.2170 307.7505 0001445 104.5442 255.5711 15.08836350 78965,6917.892,95.438,540.756,538.757,0.0
52363.0,STARLINK-3830,PAYLOAD,2023-09-15 20:00:46,15.08844468,0.0001542,53.2167,305.6693,123.5205,236.5935,3.3663e-05,2.48e-06,0.0,0 STARLINK-3830,1 52363U 22045AJ  23258.83386953  .00000248  00000-0  33663-4 0  9996,2 52363  53.2167 305.6693 0001542 123.5205 236.5935 15.08844468 79037,6917.867,95.437,540.798,538.665,0.0
52363.0,STARLINK-3830,PAYLOAD,2023-09-16 10:19:15,15.08848459,0.0001396,53.216,302.9934,103.1632,256.9516,0.00053319,8.21e-05,0.0,0 STARLINK-3830,1 52363U 22045AJ  23259.43003643  .00008210  00000-0  53319-3 0  9991,2 52363  53.2160 302.9934 0001396 103.1632 256.9516 15.08848459 79128,6917.855,95.437,540.685,538.754,0.0
52363.0,STARLINK-3830,PAYLOAD,2023-09-17 02:13:06,15.08853171,0.0001444,53.2159,300.0216,98.1135,262.0021,0.00024218,3.57e-05,0.0,0 STARLINK-3830,1 52363U 22045AJ  23260.09243166  .00003570  00000-0  24218-3 0  9991,2 52363  53.2159 300.0216 0001444  98.1135 262.0021 15.08853171 79220,6917.84,95.437,540.704,538.706,0.0
52363.0,STARLINK-3830,PAYLOAD,2023-09-17 10:10:01,15.08851471,0.0001445,53.2161,298.5336,94.4477,265.668,0.00018273,2.622e-05,0.0,0 STARLINK-3830,1 52363U 22045AJ  23260.42363145  .00002622  00000-0  18273-3 0  9999,2 52363  53.2161 298.5336 0001445  94.4477 265.6680 15.08851471 79272,6917.845,95.437,540.71,538.711,0.0
52363.0,STARLINK-3830,PAYLOAD,2023-09-18 02:03:52,15.08851125,0.0001546,53.2171,295.5593,88.2455,271.8714,9.8773e-05,1.285e-05,0.0,0 STARLINK-3830,1 52363U 22045AJ  23261.08602916  .00001285  00000-0  98773-4 0  9992,2 52363  53.2171 295.5593 0001546  88.2455 271.8714 15.08851125 79378,6917.846,95.437,540.781,538.642,0.0
52363.0,STARLINK-3830,PAYLOAD,2023-09-18 10:00:48,15.08851957,0.0001557,53.2168,294.0726,87.7622,272.3549,0.00011035,1.469e-05,0.0,0 STARLINK-3830,1 52363U 22045AJ  23261.41722614  .00001469  00000-0  11035-3 0  9996,2 52363  53.2168 294.0726 0001557  87.7622 272.3549 15.08851957 79429,6917.844,95.437,540.786,538.632,0.0
52363.0,STARLINK-3830,PAYLOAD,2023-09-18 19:33:06,15.08853218,0.0001459,53.2174,292.2879,91.2447,268.8712,6.2746e-05,7.11e-06,0.0,0 STARLINK-3830,1 52363U 22045AJ  23261.81466430  .00000711  00000-0  62746-4 0  9996,2 52363  53.2174 292.2879 0001459  91.2447 268.8712 15.08853218 79481,6917.84,95.437,540.714,538.696,0.0
52363.0,STARLINK-3830,PAYLOAD,2023-09-19 01:54:39,15.08845778,0.0001608,53.2167,291.0994,84.4415,275.6761,0.00010334,1.357e-05,0.0,0 STARLINK-3830,1 52363U 22045AJ  23262.07962682  .00001357  00000-0  10334-3 0  9997,2 52363  53.2167 291.0994 0001608  84.4415 275.6761 15.08845778 79520,6917.863,95.437,540.84,538.615,0.0
52363.0,STARLINK-3830,PAYLOAD,2023-09-20 04:56:13,15.08835987,0.0001723,53.217,286.0442,83.5828,276.536,-3.8039e-05,-8.93e-06,0.0,0 STARLINK-3830,1 52363U 22045AJ  23263.20571486 -.00000893  00000-0 -38039-4 0  9990,2 52363  53.2170 286.0442 0001723  83.5828 276.5360 15.08835987 79696,6917.893,95.438,540.95,538.566,0.0
52363.0,STARLINK-3830,PAYLOAD,2023-09-20 11:17:46,15.08836512,0.0001539,53.2164,284.8531,90.2596,269.8573,-7.6984e-05,-1.513e-05,0.0,0 STARLINK-3830,1 52363U 22045AJ  23263.47067469 -.00001513  00000-0 -76984-4 0  9991,2 52363  53.2164 284.8531 0001539  90.2596 269.8573 15.08836512 79737,6917.891,95.438,540.821,538.691,0.0
52363.0,STARLINK-3830,PAYLOAD,2023-09-21 07:57:46,15.08842145,0.0001474,53.2164,280.9865,91.4596,268.6565,-1.2881e-05,-4.93e-06,0.0,0 STARLINK-3830,1 52363U 22045AJ  23264.33179133 -.00000493  00000-0 -12881-4 0  9991,2 52363  53.2164 280.9865 0001474  91.4596 268.6565 15.08842145 79866,6917.874,95.437,540.759,538.719,0.0
52363.0,STARLINK-3830,PAYLOAD,2023-09-22 07:48:33,15.08840889,0.0001581,53.2165,276.5265,89.4341,270.6833,0.00016225,2.295e-05,0.0,0 STARLINK-3830,1 52363U 22045AJ  23265.32538999  .00002295  00000-0  16225-3 0  9995,2 52363  53.2165 276.5265 0001581  89.4341 270.6833 15.08840889 80019,6917.878,95.437,540.836,538.649,0.0
52363.0,STARLINK-3830,PAYLOAD,2023-09-22 17:20:52,15.08837244,0.0001619,53.2166,274.7425,88.079,272.0388,0.00010323,1.355e-05,0.0,0 STARLINK-3830,1 52363U 22045AJ  23265.72283490  .00001355  00000-0  10323-3 0  9991,2 52363  53.2166 274.7425 0001619  88.0790 272.0388 15.08837244 80071,6917.889,95.438,540.874,538.634,0.0
52363.0,STARLINK-3830,PAYLOAD,2023-09-23 07:39:20,15.08842121,0.0001626,53.2166,272.0678,96.7974,263.3203,8.0882e-05,1e-05,0.0,0 STARLINK-3830,1 52363U 22045AJ  23266.31899301  .00001000  00000-0  80882-4 0  9996,2 52363  53.2166 272.0678 0001626  96.7974 263.3203 15.08842121 80169,6917.874,95.437,540.864,538.614,0.0
52363.0,STARLINK-3830,PAYLOAD,2023-09-24 04:19:22,15.08835214,0.0001587,53.2163,268.2032,95.3046,264.8127,-4.2554e-05,-9.65e-06,0.0,0 STARLINK-3830,1 52363U 22045AJ  23267.18012270 -.00000965  00000-0 -42554-4 0  9999,2 52363  53.2163 268.2032 0001587  95.3046 264.8127 15.08835214 80298,6917.895,95.438,540.858,538.662,0.0
